start=new Date('2023-06-02T00:00:00.000Z').valueOf();
sats=[{"SITE":"AFETR","APOAPSIS":"540.235","INCLINATION":"53.2162","LAUNCH_DATE":"2022-06-17","EPHEMERIS_TYPE":"0","TLE_LINE1":"1 52853U 22062Z   23152.41232558  .00001460  00000-0  10981-3 0  9991","MEAN_ELEMENT_THEORY":"SGP4","OBJECT_TYPE":"PAYLOAD","REF_FRAME":"TEME","MEAN_MOTION_DDOT":"0.0000000000000","PERIOD":"95.438","ARG_OF_PERICENTER":"67.4400","ELEMENT_SET_NO":"999","FILE":"3922671","TIME_SYSTEM":"UTC","COUNTRY_CODE":"US","OBJECT_NAME":"STARLINK-4189","CLASSIFICATION_TYPE":"U","SEMIMAJOR_AXIS":"6917.896","REV_AT_EPOCH":"5359","MEAN_MOTION_DOT":"0.00001460","GP_ID":"232973943","CENTER_NAME":"EARTH","RA_OF_ASC_NODE":"248.3806","EPOCH":"2023-06-01T09:53:44.930112","MEAN_MOTION":"15.08834980","OBJECT_ID":"2022-062Z","BSTAR":"0.00010981000000","MEAN_ANOMALY":"292.6665","PERIAPSIS":"539.286","NORAD_CAT_ID":"52853","ECCENTRICITY":"0.00006860","TLE_LINE2":"2 52853  53.2162 248.3806 0000686  67.4400 292.6665 15.08834980 53590","RCS_SIZE":"LARGE","DECAY_DATE":null},{"MEAN_MOTION_DDOT":"0.0000000000000","ARG_OF_PERICENTER":"105.4095","PERIOD":"95.438","TIME_SYSTEM":"UTC","FILE":"3922671","ELEMENT_SET_NO":"999","COUNTRY_CODE":"US","CLASSIFICATION_TYPE":"U","OBJECT_NAME":"STARLINK-4204","SITE":"AFETR","APOAPSIS":"540.308","LAUNCH_DATE":"2022-06-17","INCLINATION":"53.2163","MEAN_ELEMENT_THEORY":"SGP4","OBJECT_TYPE":"PAYLOAD","TLE_LINE1":"1 52854U 22062AA  23152.41873011  .00000352  00000-0  40204-4 0  9998","EPHEMERIS_TYPE":"0","REF_FRAME":"TEME","BSTAR":"0.00004020400000","MEAN_ANOMALY":"254.6985","PERIAPSIS":"539.219","ECCENTRICITY":"0.00007870","NORAD_CAT_ID":"52854","TLE_LINE2":"2 52854  53.2163 248.3789 0000787 105.4095 254.6985 15.08834209 53594","DECAY_DATE":null,"RCS_SIZE":"LARGE","REV_AT_EPOCH":"5359","SEMIMAJOR_AXIS":"6917.898","MEAN_MOTION_DOT":"0.00000352","GP_ID":"232973942","CENTER_NAME":"EARTH","MEAN_MOTION":"15.08834209","EPOCH":"2023-06-01T10:02:58.281504","RA_OF_ASC_NODE":"248.3789","OBJECT_ID":"2022-062AA"},{"MEAN_MOTION_DDOT":"0.0000000000000","TIME_SYSTEM":"UTC","ELEMENT_SET_NO":"999","FILE":"3922671","ARG_OF_PERICENTER":"76.7401","PERIOD":"95.438","COUNTRY_CODE":"US","CLASSIFICATION_TYPE":"U","OBJECT_NAME":"STARLINK-4209","APOAPSIS":"540.305","SITE":"AFETR","LAUNCH_DATE":"2022-06-17","INCLINATION":"53.2159","REF_FRAME":"TEME","OBJECT_TYPE":"PAYLOAD","MEAN_ELEMENT_THEORY":"SGP4","EPHEMERIS_TYPE":"0","TLE_LINE1":"1 52855U 22062AB  23152.40769285  .00000743  00000-0  64734-4 0  9993","BSTAR":"0.00006473400000","PERIAPSIS":"539.226","MEAN_ANOMALY":"283.3678","TLE_LINE2":"2 52855  53.2159 248.4336 0000780  76.7401 283.3678 15.08833329 53593","ECCENTRICITY":"0.00007800","NORAD_CAT_ID":"52855","DECAY_DATE":null,"RCS_SIZE":"LARGE","MEAN_MOTION_DOT":"0.00000743","REV_AT_EPOCH":"5359","SEMIMAJOR_AXIS":"6917.901","GP_ID":"232973944","MEAN_MOTION":"15.08833329","EPOCH":"2023-06-01T09:47:04.662240","RA_OF_ASC_NODE":"248.4336","CENTER_NAME":"EARTH","OBJECT_ID":"2022-062AB"},{"LAUNCH_DATE":"2022-06-17","INCLINATION":"53.2157","SITE":"AFETR","APOAPSIS":"540.372","OBJECT_TYPE":"PAYLOAD","MEAN_ELEMENT_THEORY":"SGP4","TLE_LINE1":"1 52856U 22062AC  23152.41136886  .00001239  00000-0  95916-4 0  9997","EPHEMERIS_TYPE":"0","REF_FRAME":"TEME","ARG_OF_PERICENTER":"87.7764","PERIOD":"95.438","TIME_SYSTEM":"UTC","FILE":"3922671","ELEMENT_SET_NO":"999","MEAN_MOTION_DDOT":"0.0000000000000","COUNTRY_CODE":"US","CLASSIFICATION_TYPE":"U","OBJECT_NAME":"STARLINK-4201","GP_ID":"232974332","REV_AT_EPOCH":"5359","SEMIMAJOR_AXIS":"6917.884","MEAN_MOTION_DOT":"0.00001239","OBJECT_ID":"2022-062AC","CENTER_NAME":"EARTH","MEAN_MOTION":"15.08838973","EPOCH":"2023-06-01T09:52:22.269504","RA_OF_ASC_NODE":"248.4146","MEAN_ANOMALY":"272.3331","PERIAPSIS":"539.125","BSTAR":"0.00009591600000","DECAY_DATE":null,"RCS_SIZE":"LARGE","ECCENTRICITY":"0.00009010","NORAD_CAT_ID":"52856","TLE_LINE2":"2 52856  53.2157 248.4146 0000901  87.7764 272.3331 15.08838973 53594"},{"NORAD_CAT_ID":"52857","ECCENTRICITY":"0.00009530","TLE_LINE2":"2 52857  53.2155 249.0603 0000953  89.0884 271.0217 15.08823925 53571","DECAY_DATE":null,"RCS_SIZE":"LARGE","BSTAR":"-0.00000453090000","MEAN_ANOMALY":"271.0217","PERIAPSIS":"539.135","CENTER_NAME":"EARTH","RA_OF_ASC_NODE":"249.0603","MEAN_MOTION":"15.08823925","EPOCH":"2023-06-01T06:25:43.477248","OBJECT_ID":"2022-062AD","SEMIMAJOR_AXIS":"6917.930","REV_AT_EPOCH":"5357","MEAN_MOTION_DOT":"-0.00000360","GP_ID":"232974338","OBJECT_NAME":"STARLINK-4199","COUNTRY_CODE":"US","CLASSIFICATION_TYPE":"U","MEAN_MOTION_DDOT":"0.0000000000000","PERIOD":"95.439","ARG_OF_PERICENTER":"89.0884","ELEMENT_SET_NO":"999","FILE":"3922671","TIME_SYSTEM":"UTC","TLE_LINE1":"1 52857U 22062AD  23152.26786432 -.00000360  00000-0 -45309-5 0  9997","EPHEMERIS_TYPE":"0","MEAN_ELEMENT_THEORY":"SGP4","OBJECT_TYPE":"PAYLOAD","REF_FRAME":"TEME","SITE":"AFETR","APOAPSIS":"540.454","INCLINATION":"53.2155","LAUNCH_DATE":"2022-06-17"},{"EPOCH":"2023-06-01T09:48:27.296064","MEAN_MOTION":"15.08835885","RA_OF_ASC_NODE":"248.4302","CENTER_NAME":"EARTH","OBJECT_ID":"2022-062AE","MEAN_MOTION_DOT":"0.00000964","REV_AT_EPOCH":"5359","SEMIMAJOR_AXIS":"6917.893","GP_ID":"232973167","TLE_LINE2":"2 52858  53.2143 248.4302 0001126  72.3364 287.7751 15.08835885 53596","ECCENTRICITY":"0.00011260","NORAD_CAT_ID":"52858","DECAY_DATE":null,"RCS_SIZE":"LARGE","BSTAR":"0.00007863300000","PERIAPSIS":"538.979","MEAN_ANOMALY":"287.7751","REF_FRAME":"TEME","OBJECT_TYPE":"PAYLOAD","MEAN_ELEMENT_THEORY":"SGP4","TLE_LINE1":"1 52858U 22062AE  23152.40864926  .00000964  00000-0  78633-4 0  9992","EPHEMERIS_TYPE":"0","APOAPSIS":"540.537","SITE":"AFETR","LAUNCH_DATE":"2022-06-17","INCLINATION":"53.2143","COUNTRY_CODE":"US","OBJECT_NAME":"STARLINK-4198","CLASSIFICATION_TYPE":"U","MEAN_MOTION_DDOT":"0.0000000000000","TIME_SYSTEM":"UTC","FILE":"3922641","ELEMENT_SET_NO":"999","ARG_OF_PERICENTER":"72.3364","PERIOD":"95.438"},{"SITE":"AFETR","APOAPSIS":"540.267","INCLINATION":"53.2154","LAUNCH_DATE":"2022-06-17","EPHEMERIS_TYPE":"0","TLE_LINE1":"1 52859U 22062AF  23152.26417042  .00001494  00000-0  11190-3 0  9993","MEAN_ELEMENT_THEORY":"SGP4","OBJECT_TYPE":"PAYLOAD","REF_FRAME":"TEME","MEAN_MOTION_DDOT":"0.0000000000000","PERIOD":"95.438","ARG_OF_PERICENTER":"95.4679","ELEMENT_SET_NO":"999","FILE":"3922641","TIME_SYSTEM":"UTC","CLASSIFICATION_TYPE":"U","COUNTRY_CODE":"US","OBJECT_NAME":"STARLINK-4196","SEMIMAJOR_AXIS":"6917.889","REV_AT_EPOCH":"5357","MEAN_MOTION_DOT":"0.00001494","GP_ID":"232973174","CENTER_NAME":"EARTH","RA_OF_ASC_NODE":"249.0766","MEAN_MOTION":"15.08837300","EPOCH":"2023-06-01T06:20:24.324288","OBJECT_ID":"2022-062AF","BSTAR":"0.00011190000000","MEAN_ANOMALY":"264.6398","PERIAPSIS":"539.240","NORAD_CAT_ID":"52859","ECCENTRICITY":"0.00007420","TLE_LINE2":"2 52859  53.2154 249.0766 0000742  95.4679 264.6398 15.08837300 53571","RCS_SIZE":"LARGE","DECAY_DATE":null},{"TIME_SYSTEM":"UTC","ELEMENT_SET_NO":"999","FILE":"3922365","ARG_OF_PERICENTER":"89.3621","PERIOD":"95.438","MEAN_MOTION_DDOT":"0.0000000000000","COUNTRY_CODE":"US","CLASSIFICATION_TYPE":"U","OBJECT_NAME":"STARLINK-4191","LAUNCH_DATE":"2022-06-17","INCLINATION":"53.2167","APOAPSIS":"540.362","SITE":"AFETR","REF_FRAME":"TEME","OBJECT_TYPE":"PAYLOAD","MEAN_ELEMENT_THEORY":"SGP4","EPHEMERIS_TYPE":"0","TLE_LINE1":"1 52860U 22062AG  23152.47024988  .00001223  00000-0  94923-4 0  9997","PERIAPSIS":"539.141","MEAN_ANOMALY":"270.7472","BSTAR":"0.00009492300000","DECAY_DATE":null,"RCS_SIZE":"LARGE","TLE_LINE2":"2 52860  53.2167 248.1498 0000882  89.3621 270.7472 15.08838022 53116","ECCENTRICITY":"0.00008820","NORAD_CAT_ID":"52860","GP_ID":"232963471","MEAN_MOTION_DOT":"0.00001223","REV_AT_EPOCH":"5311","SEMIMAJOR_AXIS":"6917.886","OBJECT_ID":"2022-062AG","EPOCH":"2023-06-01T11:17:09.589632","MEAN_MOTION":"15.08838022","RA_OF_ASC_NODE":"248.1498","CENTER_NAME":"EARTH"},{"TLE_LINE2":"2 52861  53.2175 248.2741 0000770 121.9071 238.1996 15.08837479 53110","ECCENTRICITY":"0.00007700","NORAD_CAT_ID":"52861","DECAY_DATE":null,"RCS_SIZE":"LARGE","BSTAR":"0.00002063600000","PERIAPSIS":"539.220","MEAN_ANOMALY":"238.1996","EPOCH":"2023-06-01T10:41:26.903328","MEAN_MOTION":"15.08837479","RA_OF_ASC_NODE":"248.2741","CENTER_NAME":"EARTH","OBJECT_ID":"2022-062AH","MEAN_MOTION_DOT":"0.00000041","REV_AT_EPOCH":"5311","SEMIMAJOR_AXIS":"6917.888","GP_ID":"232962725","COUNTRY_CODE":"US","CLASSIFICATION_TYPE":"U","OBJECT_NAME":"STARLINK-4112","MEAN_MOTION_DDOT":"0.0000000000000","TIME_SYSTEM":"UTC","FILE":"3922365","ELEMENT_SET_NO":"999","ARG_OF_PERICENTER":"121.9071","PERIOD":"95.438","REF_FRAME":"TEME","OBJECT_TYPE":"PAYLOAD","MEAN_ELEMENT_THEORY":"SGP4","TLE_LINE1":"1 52861U 22062AH  23152.44545027  .00000041  00000-0  20636-4 0  9994","EPHEMERIS_TYPE":"0","APOAPSIS":"540.286","SITE":"AFETR","LAUNCH_DATE":"2022-06-17","INCLINATION":"53.2175"},{"OBJECT_ID":"2022-062AJ","MEAN_MOTION":"15.08838677","EPOCH":"2023-06-01T11:01:15.715488","RA_OF_ASC_NODE":"248.2023","CENTER_NAME":"EARTH","GP_ID":"232973607","MEAN_MOTION_DOT":"0.00001667","REV_AT_EPOCH":"5360","SEMIMAJOR_AXIS":"6917.884","DECAY_DATE":null,"RCS_SIZE":"LARGE","TLE_LINE2":"2 52862  53.2149 248.2023 0000771  80.7403 279.3677 15.08838677 53605","ECCENTRICITY":"0.00007710","NORAD_CAT_ID":"52862","PERIAPSIS":"539.216","MEAN_ANOMALY":"279.3677","BSTAR":"0.00012282000000","REF_FRAME":"TEME","OBJECT_TYPE":"PAYLOAD","MEAN_ELEMENT_THEORY":"SGP4","TLE_LINE1":"1 52862U 22062AJ  23152.45920967  .00001667  00000-0  12282-3 0  9998","EPHEMERIS_TYPE":"0","LAUNCH_DATE":"2022-06-17","INCLINATION":"53.2149","APOAPSIS":"540.283","SITE":"AFETR","COUNTRY_CODE":"US","OBJECT_NAME":"STARLINK-4010","CLASSIFICATION_TYPE":"U","TIME_SYSTEM":"UTC","FILE":"3922641","ELEMENT_SET_NO":"999","ARG_OF_PERICENTER":"80.7403","PERIOD":"95.438","MEAN_MOTION_DDOT":"0.0000000000000"}];
